[{"OBJECT_NAME":"LEMUR-2-LEIA-PHILIP","OBJECT_ID":"2025-052AN","EPOCH":"2026-03-09T22:47:11.533920","MEAN_MOTION":14.96639353,"ECCENTRICITY":0.00032822,"INCLINATION":97.6941,"RA_OF_ASC_NODE":322.5414,"ARG_OF_PERICENTER":181.695,"MEAN_ANOMALY":178.4261,"EPHEMERIS_TYPE":0,"CLASSIFICATION_TYPE":"U","NORAD_CAT_ID":63246,"ELEMENT_SET_NO":999,"REV_AT_EPOCH":5382,"BSTAR":0.00057534341,"MEAN_MOTION_DOT":6.505e-5,"MEAN_MOTION_DDOT":0},{"OBJECT_NAME":"STARLINK-36280","OBJECT_ID":"2025-304V","EPOCH":"2026-03-09T16:12:01.802304","MEAN_MOTION":14.98313787,"ECCENTRICITY":0.0003112,"INCLINATION":70.0027,"RA_OF_ASC_NODE":174.4498,"ARG_OF_PERICENTER":275.5816,"MEAN_ANOMALY":84.4988,"EPHEMERIS_TYPE":0,"CLASSIFICATION_TYPE":"U","NORAD_CAT_ID":67211,"ELEMENT_SET_NO":999,"REV_AT_EPOCH":1388,"BSTAR":-0.0005522368,"MEAN_MOTION_DOT":-6.673e-5,"MEAN_MOTION_DDOT":0}]
